NORAD_CAT_ID,OBJECT_NAME,OBJECT_TYPE,EPOCH,MEAN_MOTION,ECCENTRICITY,INCLINATION,RA_OF_ASC_NODE,ARG_OF_PERICENTER,MEAN_ANOMALY,BSTAR,MEAN_MOTION_DOT,MEAN_MOTION_DDOT,TLE_LINE0,TLE_LINE1,TLE_LINE2,SEMIMAJOR_AXIS,PERIOD,APOGEE,PERIGEE,DECAYED
53008.0,STARLINK-4275,PAYLOAD,2023-11-27 21:15:57,15.08846312,0.0001631,53.2175,232.71,123.4493,236.6656,-0.00016994,-2.992e-05,0.0,0 STARLINK-4275,1 53008U 22076Y   23331.88608375 -.00002992  00000-0 -16994-3 0  9996,2 53008  53.2175 232.7100 0001631 123.4493 236.6656 15.08846312 77122,6917.861,95.437,540.854,538.598,0.0
53008.0,STARLINK-4275,PAYLOAD,2023-11-28 00:26:43,15.08866858,0.0002027,53.2174,232.1158,61.2675,298.852,0.00056156,8.667e-05,0.0,0 STARLINK-4275,1 53008U 22076Y   23332.01855735  .00008667  00000-0  56156-3 0  9993,2 53008  53.2174 232.1158 0002027  61.2675 298.8520 15.08866858 77610,6917.798,95.436,541.066,538.261,0.0
53008.0,STARLINK-4275,PAYLOAD,2023-11-28 17:55:58,15.08839324,0.0001758,53.217,228.8459,116.1599,243.9574,0.00031204,4.681e-05,0.0,0 STARLINK-4275,1 53008U 22076Y   23332.74721040  .00004681  00000-0  31204-3 0  9993,2 53008  53.2170 228.8459 0001758 116.1599 243.9574 15.08839324 77727,6917.882,95.438,540.964,538.531,0.0
53008.0,STARLINK-4275,PAYLOAD,2023-11-28 22:42:08,15.08841099,0.0001685,53.2163,227.9524,117.5137,242.6026,0.00033515,5.05e-05,0.0,0 STARLINK-4275,1 53008U 22076Y   23332.94592900  .00005050  00000-0  33515-3 0  9994,2 53008  53.2163 227.9524 0001685 117.5137 242.6026 15.08841099 77285,6917.877,95.437,540.908,538.576,0.0
53008.0,STARLINK-4275,PAYLOAD,2023-11-30 01:43:41,15.08845037,0.0001574,53.2155,222.8989,113.5705,246.5452,0.00021894,3.199e-05,0.0,0 STARLINK-4275,1 53008U 22076Y   23334.07200740  .00003199  00000-0  21894-3 0  9997,2 53008  53.2155 222.8989 0001574 113.5705 246.5452 15.08845037 77922,6917.865,95.437,540.819,538.641,0.0
53008.0,STARLINK-4275,PAYLOAD,2023-12-01 01:34:29,15.08836146,0.0001611,53.2155,218.4395,87.1648,272.9529,1.8761e-05,1.1e-07,0.0,0 STARLINK-4275,1 53008U 22076Y   23335.06561622  .00000011  00000-0  18761-4 0  9996,2 53008  53.2155 218.4395 0001611  87.1648 272.9529 15.08836146 78074,6917.892,95.438,540.872,538.643,0.0
53008.0,STARLINK-4275,PAYLOAD,2023-12-01 22:14:29,15.08857295,0.0002333,53.2157,214.5739,72.79,287.3347,0.00043693,6.676e-05,0.0,0 STARLINK-4275,1 53008U 22076Y   23335.92672726  .00006676  00000-0  43693-3 0  9993,2 53008  53.2157 214.5739 0002333  72.7900 287.3347 15.08857295 77736,6917.828,95.436,541.306,538.079,0.0
53008.0,STARLINK-4275,PAYLOAD,2023-12-01 23:49:51,15.08874341,0.0001539,53.2169,214.2726,109.3739,250.742,0.00074269,0.00011563,0.0,0 STARLINK-4275,1 53008U 22076Y   23335.99295806  .00011563  00000-0  74269-3 0  9994,2 53008  53.2169 214.2726 0001539 109.3739 250.7420 15.08874341 78217,6917.775,95.435,540.705,538.576,0.0
53008.0,STARLINK-4275,PAYLOAD,2023-12-02 22:05:16,15.08841574,0.0001464,53.2149,210.1126,101.2742,258.8414,-1.9381e-05,-5.96e-06,0.0,0 STARLINK-4275,1 53008U 22076Y   23336.92032794 -.00000596  00000-0 -19381-4 0  9994,2 53008  53.2149 210.1126 0001464 101.2742 258.8414 15.08841574 77882,6917.876,95.437,540.753,538.728,0.0
53008.0,STARLINK-4275,PAYLOAD,2023-12-03 20:20:41,15.08835851,0.0001627,53.2158,205.9555,91.2485,268.8694,-0.00023706,-4.058e-05,0.0,0 STARLINK-4275,1 53008U 22076Y   23337.84769746 -.00004058  00000-0 -23706-3 0  9992,2 53008  53.2158 205.9555 0001627  91.2485 268.8694 15.08835851 78493,6917.893,95.438,540.884,538.633,0.0
53008.0,STARLINK-4275,PAYLOAD,2023-12-04 01:06:50,15.08836459,0.0001724,53.2161,205.0557,107.8305,252.2875,-0.00022756,-3.908e-05,0.0,0 STARLINK-4275,1 53008U 22076Y   23338.04641614 -.00003908  00000-0 -22756-3 0  9995,2 53008  53.2161 205.0557 0001724 107.8305 252.2875 15.08836459 78058,6917.891,95.438,540.949,538.564,0.0
53008.0,STARLINK-4275,PAYLOAD,2023-12-05 00:57:37,15.08840118,0.0001493,53.214,200.5984,80.0498,280.0663,0.00022216,3.249e-05,0.0,0 STARLINK-4275,1 53008U 22076Y   23339.04001194  .00003249  00000-0  22216-3 0  9996,2 53008  53.2140 200.5984 0001493  80.0498 280.0663 15.08840118 78676,6917.88,95.438,540.778,538.712,0.0
53008.0,STARLINK-4275,PAYLOAD,2023-12-06 13:31:29,15.08838525,0.0001559,53.2158,193.7577,99.4431,260.6737,8.473e-06,-1.53e-06,0.0,0 STARLINK-4275,1 53008U 22076Y   23340.56353513 -.00000153  00000-0  84730-5 0  9993,2 53008  53.2158 193.7577 0001559  99.4431 260.6737 15.08838525 78439,6917.885,95.438,540.828,538.671,0.0
53008.0,STARLINK-4275,PAYLOAD,2023-12-07 13:22:16,15.08838085,0.0001456,53.2141,189.298,86.7399,273.376,-8.5573e-06,-4.24e-06,0.0,0 STARLINK-4275,1 53008U 22076Y   23341.55713626 -.00000424  00000-0 -85573-5 0  9996,2 53008  53.2141 189.2980 0001456  86.7399 273.3760 15.08838085 78581,6917.886,95.438,540.758,538.744,0.0
53008.0,STARLINK-4275,PAYLOAD,2023-12-09 13:03:48,15.08857427,0.0001628,53.2149,180.376,80.4401,279.6775,0.00013503,1.863e-05,0.0,0 STARLINK-4275,1 53008U 22076Y   23343.54431244  .00001863  00000-0  13503-3 0  9998,2 53008  53.2149 180.3760 0001628  80.4401 279.6775 15.08857427 78882,6917.827,95.436,540.818,538.566,0.0
53008.0,STARLINK-4275,PAYLOAD,2023-12-09 22:36:07,15.08853215,5.29e-05,53.2189,178.59,290.9364,69.1571,8.9634e-05,1.14e-05,0.0,0 STARLINK-4275,1 53008U 22076Y   23343.94175076  .00001140  00000-0  89634-4 0  9997,2 53008  53.2189 178.5900 0000529 290.9364  69.1571 15.08853215 79413,6917.84,95.437,540.071,539.339,0.0
53008.0,STARLINK-4275,PAYLOAD,2023-12-10 12:54:37,15.08831133,0.0001579,53.2147,175.9148,81.7898,278.3273,-8.5773e-05,-1.652e-05,0.0,0 STARLINK-4275,1 53008U 22076Y   23344.53793365 -.00001652  00000-0 -85773-4 0  9990,2 53008  53.2147 175.9148 0001579  81.7898 278.3273 15.08831133 79032,6917.907,95.438,540.865,538.68,0.0
53008.0,STARLINK-4275,PAYLOAD,2023-12-10 19:16:09,15.08820954,0.0001567,53.2157,174.7256,106.1003,254.0162,-8.714e-06,-4.27e-06,0.0,0 STARLINK-4275,1 53008U 22076Y   23344.80288982 -.00000427  00000-0 -87140-5 0  9994,2 53008  53.2157 174.7256 0001567 106.1003 254.0162 15.08820954 79540,6917.939,95.439,540.888,538.72,0.0
53008.0,STARLINK-4275,PAYLOAD,2023-12-11 19:06:57,15.08825026,0.0001537,53.2161,170.2653,106.2131,253.903,2.1875e-05,6e-07,0.0,0 STARLINK-4275,1 53008U 22076Y   23345.79649700  .00000060  00000-0  21875-4 0  9995,2 53008  53.2161 170.2653 0001537 106.2131 253.9030 15.08825026 79229,6917.926,95.439,540.854,538.728,0.0
53008.0,STARLINK-4275,PAYLOAD,2023-12-12 17:22:21,15.08825924,0.0001415,53.2159,166.101,95.3418,264.7736,7.4048e-05,8.9e-06,0.0,0 STARLINK-4275,1 53008U 22076Y   23346.72386447  .00000890  00000-0  74048-4 0  9996,2 53008  53.2159 166.1010 0001415  95.3418 264.7736 15.08825924 79363,6917.923,95.438,540.767,538.81,0.0
53008.0,STARLINK-4275,PAYLOAD,2023-12-13 18:48:32,15.08833692,0.00014,53.2159,161.3434,94.494,265.6212,8.8973e-05,1.128e-05,0.0,0 STARLINK-4275,1 53008U 22076Y   23347.78370670  .00001128  00000-0  88973-4 0  9991,2 53008  53.2159 161.3434 0001400  94.4940 265.6212 15.08833692 79993,6917.9,95.438,540.733,538.796,0.0
53008.0,STARLINK-4275,PAYLOAD,2023-12-14 18:39:18,15.08842843,0.0001393,53.2161,156.8834,90.8141,269.3011,0.0001065,1.408e-05,0.0,0 STARLINK-4275,1 53008U 22076Y   23348.77730270  .00001408  00000-0  10650-3 0  9994,2 53008  53.2161 156.8834 0001393  90.8141 269.3011 15.08842843 80148,6917.872,95.437,540.7,538.773,0.0
53008.0,STARLINK-4275,PAYLOAD,2023-12-15 18:30:06,15.08837442,0.0001402,53.2161,152.4221,89.8372,270.278,-2.5024e-06,-3.28e-06,0.0,0 STARLINK-4275,1 53008U 22076Y   23349.77091074 -.00000328  00000-0 -25024-5 0  9992,2 53008  53.2161 152.4221 0001402  89.8372 270.2780 15.08837442 80294,6917.888,95.438,540.723,538.783,0.0
53008.0,STARLINK-4275,PAYLOAD,2023-12-16 18:20:53,15.08830453,0.0001511,53.216,147.9609,93.4751,266.6414,0.00029618,4.428e-05,0.0,0 STARLINK-4275,1 53008U 22076Y   23350.76450424  .00004428  00000-0  29618-3 0  9995,2 53008  53.2160 147.9609 0001511  93.4751 266.6414 15.08830453 79976,6917.91,95.438,540.82,538.729,0.0
53008.0,STARLINK-4275,PAYLOAD,2023-12-17 15:00:54,15.08815988,0.0001911,53.2174,144.0943,52.6972,307.4194,0.0003337,5.023e-05,0.0,0 STARLINK-4275,1 53008U 22076Y   23351.62563276  .00005023  00000-0  33370-3 0  9993,2 53008  53.2174 144.0943 0001911  52.6972 307.4194 15.08815988 80108,6917.954,95.439,541.141,538.497,0.0
53008.0,STARLINK-4275,PAYLOAD,2023-12-17 16:36:17,15.08837663,0.0001491,53.2163,143.7988,77.9375,282.1784,4.1133e-05,3.67e-06,0.0,0 STARLINK-4275,1 53008U 22076Y   23351.69186923  .00000367  00000-0  41133-4 0  9993,2 53008  53.2163 143.7988 0001491  77.9375 282.1784 15.08837663 80581,6917.888,95.438,540.784,538.721,0.0
53008.0,STARLINK-4275,PAYLOAD,2023-12-18 14:51:40,15.08852785,0.0001386,53.217,139.6342,82.3872,277.7277,-3.736e-06,-3.47e-06,0.0,0 STARLINK-4275,1 53008U 22076Y   23352.61921951 -.00000347  00000-0 -37360-5 0  9992,2 53008  53.2170 139.6342 0001386  82.3872 277.7277 15.08852785 80255,6917.841,95.437,540.665,538.747,0.0
53008.0,STARLINK-4275,PAYLOAD,2023-12-18 16:27:03,15.08853469,0.0001546,53.217,139.3353,75.9932,284.1232,2.3316e-05,8.3e-07,0.0,0 STARLINK-4275,1 53008U 22076Y   23352.68545829  .00000083  00000-0  23316-4 0  9995,2 53008  53.2170 139.3353 0001546  75.9932 284.1232 15.08853469 80733,6917.839,95.437,540.774,538.635,0.0
53008.0,STARLINK-4275,PAYLOAD,2023-12-19 14:42:27,15.08842488,0.0001437,53.2161,135.1707,97.9451,262.1705,3.4306e-05,2.58e-06,0.0,0 STARLINK-4275,1 53008U 22076Y   23353.61282143  .00000258  00000-0  34306-4 0  9991,2 53008  53.2161 135.1707 0001437  97.9451 262.1705 15.08842488 80403,6917.873,95.437,540.732,538.744,0.0
53008.0,STARLINK-4275,PAYLOAD,2023-12-19 16:17:50,15.08842522,0.0001416,53.2161,134.8744,95.6425,264.4729,3.4249e-05,2.57e-06,0.0,0 STARLINK-4275,1 53008U 22076Y   23353.67906139  .00000257  00000-0  34249-4 0  9990,2 53008  53.2161 134.8744 0001416  95.6425 264.4729 15.08842522 80885,6917.873,95.437,540.717,538.758,0.0
